<?xml version="1.0" encoding="UTF-8"?>
<kml xmlns="http://www.opengis.net/kml/2.2" 
	xmlns:atom="http://www.w3.org/2005/Atom" 
	xmlns:gx="http://www.google.com/kml/ext/2.2" 
	>
<Document>
	<name>生米镇相里村</name>
	<Placemark>
		<name>春红实业员工宿舍X1栋1单元1层XJXF36601-GJ-01-FX-04-FXGF-01</name>
		<description>江西省南昌市新建区望城工业园璜溪大道33号春红实业员工宿舍X1栋1单元1层 建设模式：自建 总端口：4 创建时间:2022-06-14 二维码:AB0104141 PON口:OLT617+0-1-3</description>
		<OvAttr>
			<OvIcon>4</OvIcon>
			<OvIconNum>0</OvIconNum>
		</OvAttr>
		<Style>
			<IconStyle>
				<Icon>
					<href>http://maps.google.com/mapfiles/kml/pushpin/ylw-pushpin.png</href>
				</Icon>
				<hotSpot x="0.5" y="0.0" xunits="fraction" yunits="fraction" />
			</IconStyle>
			<LineStyle>
				<color>00000000</color>
				<width>0.0</width>
			</LineStyle>
		</Style>
		<OvCoordType>CGCS2000</OvCoordType>
		<Point>
			<coordinates>115.74678701,28.55894297,0</coordinates>
		</Point>
		<LookAt>
			<longitude>115.74678802</longitude>
			<latitude>28.55894279</latitude>
			<altitude>0</altitude>
			<heading>3.00000000</heading>
			<tilt>0.00000000</tilt>
			<range>20000</range>
			<gx:altitudeMode>relativeToSeaFloor</gx:altitudeMode>
		</LookAt>
	</Placemark>
	<Placemark>
		<name>生米镇相里村民房001栋XJXF64601-GJ-01-FX-01-FXGF-01</name>
		<description>江西省南昌市红谷滩区生米街道生米村委会相里村委会 建设模式：自建 总端口：4 创建时间:2025-03-31 二维码:AB0505490 PON口:OLT617+0-1-3</description>
		<OvAttr>
			<OvIcon>4</OvIcon>
			<OvIconNum>0</OvIconNum>
		</OvAttr>
		<Style>
			<IconStyle>
				<Icon>
					<href>http://maps.google.com/mapfiles/kml/pushpin/ylw-pushpin.png</href>
				</Icon>
				<hotSpot x="0.5" y="0.0" xunits="fraction" yunits="fraction" />
			</IconStyle>
			<LineStyle>
				<color>00000000</color>
				<width>0.0</width>
			</LineStyle>
		</Style>
		<OvCoordType>CGCS2000</OvCoordType>
		<Point>
			<coordinates>115.74326856,28.55426556,0</coordinates>
		</Point>
		<LookAt>
			<longitude>115.74327087</longitude>
			<latitude>28.55426598</latitude>
			<altitude>0</altitude>
			<heading>3.00000000</heading>
			<tilt>0.00000000</tilt>
			<range>20000</range>
			<gx:altitudeMode>relativeToSeaFloor</gx:altitudeMode>
		</LookAt>
	</Placemark>
	<Placemark>
		<name>生米镇相里村民房049栋XJXF64601-GJ-01-FX-05-FXGF-01</name>
		<description>江西省南昌市红谷滩区生米街道生米村委会相里村委会 建设模式：自建 总端口：4 创建时间:2025-03-31 二维码:AB0505496 PON口:OLT617+0-1-0</description>
		<OvAttr>
			<OvIcon>4</OvIcon>
			<OvIconNum>0</OvIconNum>
		</OvAttr>
		<Style>
			<IconStyle>
				<Icon>
					<href>http://maps.google.com/mapfiles/kml/pushpin/ylw-pushpin.png</href>
				</Icon>
				<hotSpot x="0.5" y="0.0" xunits="fraction" yunits="fraction" />
			</IconStyle>
			<LineStyle>
				<color>00000000</color>
				<width>0.0</width>
			</LineStyle>
		</Style>
		<OvCoordType>CGCS2000</OvCoordType>
		<Point>
			<coordinates>115.74371584,28.55499949,0</coordinates>
		</Point>
		<LookAt>
			<longitude>115.74371338</longitude>
			<latitude>28.55500031</latitude>
			<altitude>0</altitude>
			<heading>3.00000000</heading>
			<tilt>0.00000000</tilt>
			<range>20000</range>
			<gx:altitudeMode>relativeToSeaFloor</gx:altitudeMode>
		</LookAt>
	</Placemark>
	<Placemark>
		<name>生米镇相里村民房061栋XJXF64601-GJ-01-FX-06-FXGF-01</name>
		<description>江西省南昌市红谷滩区生米街道生米村委会相里村委会 建设模式：自建 总端口：4 创建时间:2025-03-31 二维码:AB0505495 PON口:OLT617+0-1-0</description>
		<OvAttr>
			<OvIcon>4</OvIcon>
			<OvIconNum>0</OvIconNum>
		</OvAttr>
		<Style>
			<IconStyle>
				<Icon>
					<href>http://maps.google.com/mapfiles/kml/pushpin/ylw-pushpin.png</href>
				</Icon>
				<hotSpot x="0.5" y="0.0" xunits="fraction" yunits="fraction" />
			</IconStyle>
			<LineStyle>
				<color>00000000</color>
				<width>0.0</width>
			</LineStyle>
		</Style>
		<OvCoordType>CGCS2000</OvCoordType>
		<Point>
			<coordinates>115.74341094,28.55520781,0</coordinates>
		</Point>
		<LookAt>
			<longitude>115.74340820</longitude>
			<latitude>28.55520821</latitude>
			<altitude>0</altitude>
			<heading>3.00000000</heading>
			<tilt>0.00000000</tilt>
			<range>20000</range>
			<gx:altitudeMode>relativeToSeaFloor</gx:altitudeMode>
		</LookAt>
	</Placemark>
	<Placemark>
		<name>生米镇相里村民房109栋XJXF64601-GJ-01-FX-10-FXGF-01</name>
		<description>江西省南昌市红谷滩区生米街道生米村委会相里村委会 建设模式：自建 总端口：4 创建时间:2025-03-31 二维码:AB0505487 PON口:OLT617+0-1-3</description>
		<OvAttr>
			<OvIcon>4</OvIcon>
			<OvIconNum>0</OvIconNum>
		</OvAttr>
		<Style>
			<IconStyle>
				<Icon>
					<href>http://maps.google.com/mapfiles/kml/pushpin/ylw-pushpin.png</href>
				</Icon>
				<hotSpot x="0.5" y="0.0" xunits="fraction" yunits="fraction" />
			</IconStyle>
			<LineStyle>
				<color>00000000</color>
				<width>0.0</width>
			</LineStyle>
		</Style>
		<OvCoordType>CGCS2000</OvCoordType>
		<Point>
			<coordinates>115.74132807,28.55072745,0</coordinates>
		</Point>
		<LookAt>
			<longitude>115.74132538</longitude>
			<latitude>28.55072784</latitude>
			<altitude>0</altitude>
			<heading>3.00000000</heading>
			<tilt>0.00000000</tilt>
			<range>20000</range>
			<gx:altitudeMode>relativeToSeaFloor</gx:altitudeMode>
		</LookAt>
	</Placemark>
	<Placemark>
		<name>生米镇相里村民房133栋XJXF64601-GJ-01-FX-12-FXGF-01</name>
		<description>江西省南昌市红谷滩区生米街道生米村委会相里村委会 建设模式：自建 总端口：4 创建时间:2025-03-31 二维码:AB0505485 PON口:OLT617+0-1-0</description>
		<OvAttr>
			<OvIcon>4</OvIcon>
			<OvIconNum>0</OvIconNum>
		</OvAttr>
		<Style>
			<IconStyle>
				<Icon>
					<href>http://maps.google.com/mapfiles/kml/pushpin/ylw-pushpin.png</href>
				</Icon>
				<hotSpot x="0.5" y="0.0" xunits="fraction" yunits="fraction" />
			</IconStyle>
			<LineStyle>
				<color>00000000</color>
				<width>0.0</width>
			</LineStyle>
		</Style>
		<OvCoordType>CGCS2000</OvCoordType>
		<Point>
			<coordinates>115.73874614,28.55006598,0</coordinates>
		</Point>
		<LookAt>
			<longitude>115.73874664</longitude>
			<latitude>28.55006599</latitude>
			<altitude>0</altitude>
			<heading>3.00000000</heading>
			<tilt>0.00000000</tilt>
			<range>20000</range>
			<gx:altitudeMode>relativeToSeaFloor</gx:altitudeMode>
		</LookAt>
	</Placemark>
	<Placemark>
		<name>生米镇相里村民房157栋XJXF64601-GJ-01-FX-14-FXGF-01</name>
		<description>江西省南昌市红谷滩区生米街道生米村委会相里村委会 建设模式：自建 总端口：4 创建时间:2025-03-31 二维码:19010203040000031700012618972E246000026FEAF59C63F96427EDDAEE709E0000000000000000000000000000000000000000000000000000000000000000 PON口:OLT617+0-1-0</description>
		<OvAttr>
			<OvIcon>4</OvIcon>
			<OvIconNum>0</OvIconNum>
		</OvAttr>
		<Style>
			<IconStyle>
				<Icon>
					<href>http://maps.google.com/mapfiles/kml/pushpin/ylw-pushpin.png</href>
				</Icon>
				<hotSpot x="0.5" y="0.0" xunits="fraction" yunits="fraction" />
			</IconStyle>
			<LineStyle>
				<color>00000000</color>
				<width>0.0</width>
			</LineStyle>
		</Style>
		<OvCoordType>CGCS2000</OvCoordType>
		<Point>
			<coordinates>115.73736394,28.55015353,0</coordinates>
		</Point>
		<LookAt>
			<longitude>115.73736572</longitude>
			<latitude>28.55015373</latitude>
			<altitude>0</altitude>
			<heading>3.00000000</heading>
			<tilt>0.00000000</tilt>
			<range>20000</range>
			<gx:altitudeMode>relativeToSeaFloor</gx:altitudeMode>
		</LookAt>
	</Placemark>
	<Placemark>
		<name>生米镇相里村民房169栋XJXF64601-GJ-01-FX-15-FXGF-01</name>
		<description>江西省南昌市红谷滩区生米街道生米村委会相里村委会 建设模式：自建 总端口：4 创建时间:2025-03-31 二维码:AB0505472 PON口:OLT617+0-1-0</description>
		<OvAttr>
			<OvIcon>4</OvIcon>
			<OvIconNum>0</OvIconNum>
		</OvAttr>
		<Style>
			<IconStyle>
				<Icon>
					<href>http://maps.google.com/mapfiles/kml/pushpin/ylw-pushpin.png</href>
				</Icon>
				<hotSpot x="0.5" y="0.0" xunits="fraction" yunits="fraction" />
			</IconStyle>
			<LineStyle>
				<color>00000000</color>
				<width>0.0</width>
			</LineStyle>
		</Style>
		<OvCoordType>CGCS2000</OvCoordType>
		<Point>
			<coordinates>115.73657983,28.55417382,0</coordinates>
		</Point>
		<LookAt>
			<longitude>115.73657990</longitude>
			<latitude>28.55417442</latitude>
			<altitude>0</altitude>
			<heading>3.00000000</heading>
			<tilt>0.00000000</tilt>
			<range>20000</range>
			<gx:altitudeMode>relativeToSeaFloor</gx:altitudeMode>
		</LookAt>
	</Placemark>
	<Placemark>
		<name>生米镇相里村民房289栋XJXF64601-GJ-01-FX-25-FXGF-01</name>
		<description>江西省南昌市红谷滩区生米街道生米村委会相里村委会 建设模式：自建 总端口：4 创建时间:2025-03-31 二维码:AB0505479 PON口:OLT617+0-1-1</description>
		<OvAttr>
			<OvIcon>4</OvIcon>
			<OvIconNum>0</OvIconNum>
		</OvAttr>
		<Style>
			<IconStyle>
				<Icon>
					<href>http://maps.google.com/mapfiles/kml/pushpin/ylw-pushpin.png</href>
				</Icon>
				<hotSpot x="0.5" y="0.0" xunits="fraction" yunits="fraction" />
			</IconStyle>
			<LineStyle>
				<color>00000000</color>
				<width>0.0</width>
			</LineStyle>
		</Style>
		<OvCoordType>CGCS2000</OvCoordType>
		<Point>
			<coordinates>115.73333043,28.55041586,0</coordinates>
		</Point>
		<LookAt>
			<longitude>115.73332977</longitude>
			<latitude>28.55041504</latitude>
			<altitude>0</altitude>
			<heading>3.00000000</heading>
			<tilt>0.00000000</tilt>
			<range>20000</range>
			<gx:altitudeMode>relativeToSeaFloor</gx:altitudeMode>
		</LookAt>
	</Placemark>
	<Placemark>
		<name>生米415（智能枪机）相里村分叉支路商店西北侧</name>
		<description>生米派出所</description>
		<OvAttr>
			<OvIcon>140</OvIcon>
			<OvIconNum>0</OvIconNum>
		</OvAttr>
		<Style>
			<IconStyle>
				<Icon>
					<href>http://maps.google.com/mapfiles/kml/shapes/open-diamond.png</href>
				</Icon>
				<hotSpot x="0.5" y="0.0" xunits="fraction" yunits="fraction" />
				<color>ff0000ff</color>
			</IconStyle>
			<LineStyle>
				<color>00000000</color>
				<width>0.0</width>
			</LineStyle>
		</Style>
		<OvCoordType>CGCS2000</OvCoordType>
		<Point>
			<coordinates>115.74359400,28.55504300,0</coordinates>
		</Point>
		<LookAt>
			<longitude>115.74359131</longitude>
			<latitude>28.55504227</latitude>
			<altitude>0</altitude>
			<heading>3.00000000</heading>
			<tilt>0.00000000</tilt>
			<range>20000</range>
			<gx:altitudeMode>relativeToSeaFloor</gx:altitudeMode>
		</LookAt>
	</Placemark>
	<Placemark>
		<name>生米426（智能枪机）相里下边村万家三叉支路段</name>
		<description>生米派出所</description>
		<OvAttr>
			<OvIcon>140</OvIcon>
			<OvIconNum>0</OvIconNum>
		</OvAttr>
		<Style>
			<IconStyle>
				<Icon>
					<href>http://maps.google.com/mapfiles/kml/shapes/open-diamond.png</href>
				</Icon>
				<hotSpot x="0.5" y="0.0" xunits="fraction" yunits="fraction" />
				<color>ff0000ff</color>
			</IconStyle>
			<LineStyle>
				<color>00000000</color>
				<width>0.0</width>
			</LineStyle>
		</Style>
		<OvCoordType>CGCS2000</OvCoordType>
		<Point>
			<coordinates>115.73530200,28.55113500,0</coordinates>
		</Point>
		<LookAt>
			<longitude>115.73530579</longitude>
			<latitude>28.55113411</latitude>
			<altitude>0</altitude>
			<heading>3.00000000</heading>
			<tilt>0.00000000</tilt>
			<range>20000</range>
			<gx:altitudeMode>relativeToSeaFloor</gx:altitudeMode>
		</LookAt>
	</Placemark>
	<Placemark>
		<name>生米418（智能枪机）相里万家村东北侧</name>
		<description>生米派出所</description>
		<OvAttr>
			<OvIcon>140</OvIcon>
			<OvIconNum>0</OvIconNum>
		</OvAttr>
		<Style>
			<IconStyle>
				<Icon>
					<href>http://maps.google.com/mapfiles/kml/shapes/open-diamond.png</href>
				</Icon>
				<hotSpot x="0.5" y="0.0" xunits="fraction" yunits="fraction" />
				<color>ff0000ff</color>
			</IconStyle>
			<LineStyle>
				<color>00000000</color>
				<width>0.0</width>
			</LineStyle>
		</Style>
		<OvCoordType>CGCS2000</OvCoordType>
		<Point>
			<coordinates>115.74190900,28.55063600,0</coordinates>
		</Point>
		<LookAt>
			<longitude>115.74190521</longitude>
			<latitude>28.55063629</latitude>
			<altitude>0</altitude>
			<heading>3.00000000</heading>
			<tilt>0.00000000</tilt>
			<range>20000</range>
			<gx:altitudeMode>relativeToSeaFloor</gx:altitudeMode>
		</LookAt>
	</Placemark>
	<Placemark>
		<name>生米1375（智能枪机）生米镇政府南门</name>
		<description>生米派出所</description>
		<OvAttr>
			<OvIcon>140</OvIcon>
			<OvIconNum>0</OvIconNum>
		</OvAttr>
		<Style>
			<IconStyle>
				<Icon>
					<href>http://maps.google.com/mapfiles/kml/shapes/open-diamond.png</href>
				</Icon>
				<hotSpot x="0.5" y="0.0" xunits="fraction" yunits="fraction" />
				<color>ff0000ff</color>
			</IconStyle>
			<LineStyle>
				<color>00000000</color>
				<width>0.0</width>
			</LineStyle>
		</Style>
		<OvCoordType>CGCS2000</OvCoordType>
		<Point>
			<coordinates>115.73720800,28.54985400,0</coordinates>
		</Point>
		<LookAt>
			<longitude>115.73720551</longitude>
			<latitude>28.54985428</latitude>
			<altitude>0</altitude>
			<heading>3.00000000</heading>
			<tilt>0.00000000</tilt>
			<range>20000</range>
			<gx:altitudeMode>relativeToSeaFloor</gx:altitudeMode>
		</LookAt>
	</Placemark>
	<Placemark>
		<name>生米416（智能枪机）相里村新老年中心门口</name>
		<description>生米派出所</description>
		<OvAttr>
			<OvIcon>140</OvIcon>
			<OvIconNum>0</OvIconNum>
		</OvAttr>
		<Style>
			<IconStyle>
				<Icon>
					<href>http://maps.google.com/mapfiles/kml/shapes/open-diamond.png</href>
				</Icon>
				<hotSpot x="0.5" y="0.0" xunits="fraction" yunits="fraction" />
				<color>ff0000ff</color>
			</IconStyle>
			<LineStyle>
				<color>00000000</color>
				<width>0.0</width>
			</LineStyle>
		</Style>
		<OvCoordType>CGCS2000</OvCoordType>
		<Point>
			<coordinates>115.74568200,28.55159600,0</coordinates>
		</Point>
		<LookAt>
			<longitude>115.74568176</longitude>
			<latitude>28.55159569</latitude>
			<altitude>0</altitude>
			<heading>3.00000000</heading>
			<tilt>0.00000000</tilt>
			<range>20000</range>
			<gx:altitudeMode>relativeToSeaFloor</gx:altitudeMode>
		</LookAt>
	</Placemark>
	<Placemark>
		<name>生米417（智能枪机）相里万家村西北侧</name>
		<description>生米派出所</description>
		<OvAttr>
			<OvIcon>140</OvIcon>
			<OvIconNum>0</OvIconNum>
		</OvAttr>
		<Style>
			<IconStyle>
				<Icon>
					<href>http://maps.google.com/mapfiles/kml/shapes/open-diamond.png</href>
				</Icon>
				<hotSpot x="0.5" y="0.0" xunits="fraction" yunits="fraction" />
				<color>ff0000ff</color>
			</IconStyle>
			<LineStyle>
				<color>00000000</color>
				<width>0.0</width>
			</LineStyle>
		</Style>
		<OvCoordType>CGCS2000</OvCoordType>
		<Point>
			<coordinates>115.74187700,28.55067800,0</coordinates>
		</Point>
		<LookAt>
			<longitude>115.74187469</longitude>
			<latitude>28.55067825</latitude>
			<altitude>0</altitude>
			<heading>3.00000000</heading>
			<tilt>0.00000000</tilt>
			<range>20000</range>
			<gx:altitudeMode>relativeToSeaFloor</gx:altitudeMode>
		</LookAt>
	</Placemark>
	<Placemark>
		<name>生米414（智能枪机）相里村分叉支路商店东南侧</name>
		<description>生米派出所</description>
		<OvAttr>
			<OvIcon>140</OvIcon>
			<OvIconNum>0</OvIconNum>
		</OvAttr>
		<Style>
			<IconStyle>
				<Icon>
					<href>http://maps.google.com/mapfiles/kml/shapes/open-diamond.png</href>
				</Icon>
				<hotSpot x="0.5" y="0.0" xunits="fraction" yunits="fraction" />
				<color>ff0000ff</color>
			</IconStyle>
			<LineStyle>
				<color>00000000</color>
				<width>0.0</width>
			</LineStyle>
		</Style>
		<OvCoordType>CGCS2000</OvCoordType>
		<Point>
			<coordinates>115.74359700,28.55504300,0</coordinates>
		</Point>
		<LookAt>
			<longitude>115.74359894</longitude>
			<latitude>28.55504227</latitude>
			<altitude>0</altitude>
			<heading>3.00000000</heading>
			<tilt>0.00000000</tilt>
			<range>20000</range>
			<gx:altitudeMode>relativeToSeaFloor</gx:altitudeMode>
		</LookAt>
	</Placemark>
	<Placemark>
		<name>生米413（智能枪机）相里村分叉支路东北侧</name>
		<description>生米派出所</description>
		<OvAttr>
			<OvIcon>140</OvIcon>
			<OvIconNum>0</OvIconNum>
		</OvAttr>
		<Style>
			<IconStyle>
				<Icon>
					<href>http://maps.google.com/mapfiles/kml/shapes/open-diamond.png</href>
				</Icon>
				<hotSpot x="0.5" y="0.0" xunits="fraction" yunits="fraction" />
				<color>ff0000ff</color>
			</IconStyle>
			<LineStyle>
				<color>00000000</color>
				<width>0.0</width>
			</LineStyle>
		</Style>
		<OvCoordType>CGCS2000</OvCoordType>
		<Point>
			<coordinates>115.74271300,28.55550500,0</coordinates>
		</Point>
		<LookAt>
			<longitude>115.74271393</longitude>
			<latitude>28.55550575</latitude>
			<altitude>0</altitude>
			<heading>3.00000000</heading>
			<tilt>0.00000000</tilt>
			<range>20000</range>
			<gx:altitudeMode>relativeToSeaFloor</gx:altitudeMode>
		</LookAt>
	</Placemark>
	<Placemark>
		<name>生米420（智能枪机）相里马家村支路中段西侧</name>
		<description>生米派出所</description>
		<OvAttr>
			<OvIcon>140</OvIcon>
			<OvIconNum>0</OvIconNum>
		</OvAttr>
		<Style>
			<IconStyle>
				<Icon>
					<href>http://maps.google.com/mapfiles/kml/shapes/open-diamond.png</href>
				</Icon>
				<hotSpot x="0.5" y="0.0" xunits="fraction" yunits="fraction" />
				<color>ff0000ff</color>
			</IconStyle>
			<LineStyle>
				<color>00000000</color>
				<width>0.0</width>
			</LineStyle>
		</Style>
		<OvCoordType>CGCS2000</OvCoordType>
		<Point>
			<coordinates>115.73720800,28.54985400,0</coordinates>
		</Point>
		<LookAt>
			<longitude>115.73720551</longitude>
			<latitude>28.54985428</latitude>
			<altitude>0</altitude>
			<heading>3.00000000</heading>
			<tilt>0.00000000</tilt>
			<range>20000</range>
			<gx:altitudeMode>relativeToSeaFloor</gx:altitudeMode>
		</LookAt>
	</Placemark>
	<Placemark>
		<name>生米726胜利村东堡自然村相里下边进村口</name>
		<description>生米派出所</description>
		<OvAttr>
			<OvIcon>140</OvIcon>
			<OvIconNum>0</OvIconNum>
		</OvAttr>
		<Style>
			<IconStyle>
				<Icon>
					<href>http://maps.google.com/mapfiles/kml/shapes/open-diamond.png</href>
				</Icon>
				<hotSpot x="0.5" y="0.0" xunits="fraction" yunits="fraction" />
				<color>ff0000ff</color>
			</IconStyle>
			<LineStyle>
				<color>00000000</color>
				<width>0.0</width>
			</LineStyle>
		</Style>
		<OvCoordType>CGCS2000</OvCoordType>
		<Point>
			<coordinates>115.73510600,28.55110500,0</coordinates>
		</Point>
		<LookAt>
			<longitude>115.73510742</longitude>
			<latitude>28.55110550</latitude>
			<altitude>0</altitude>
			<heading>3.00000000</heading>
			<tilt>0.00000000</tilt>
			<range>20000</range>
			<gx:altitudeMode>relativeToSeaFloor</gx:altitudeMode>
		</LookAt>
	</Placemark>
	<Placemark>
		<name>生米419 （全智能）相里万家村支路中段东侧</name>
		<description>生米派出所</description>
		<OvAttr>
			<OvIcon>140</OvIcon>
			<OvIconNum>0</OvIconNum>
		</OvAttr>
		<Style>
			<IconStyle>
				<Icon>
					<href>http://maps.google.com/mapfiles/kml/shapes/open-diamond.png</href>
				</Icon>
				<hotSpot x="0.5" y="0.0" xunits="fraction" yunits="fraction" />
				<color>ff0000ff</color>
			</IconStyle>
			<LineStyle>
				<color>00000000</color>
				<width>0.0</width>
			</LineStyle>
		</Style>
		<OvCoordType>CGCS2000</OvCoordType>
		<Point>
			<coordinates>115.73874200,28.55015100,0</coordinates>
		</Point>
		<LookAt>
			<longitude>115.73873901</longitude>
			<latitude>28.55015182</latitude>
			<altitude>0</altitude>
			<heading>3.00000000</heading>
			<tilt>0.00000000</tilt>
			<range>20000</range>
			<gx:altitudeMode>relativeToSeaFloor</gx:altitudeMode>
		</LookAt>
	</Placemark>
	<Placemark>
		<name>龙兴306（智能枪机）相里村草塘李家自然村村尾</name>
		<description>龙兴派出所</description>
		<OvAttr>
			<OvIcon>140</OvIcon>
			<OvIconNum>0</OvIconNum>
		</OvAttr>
		<Style>
			<IconStyle>
				<Icon>
					<href>http://maps.google.com/mapfiles/kml/shapes/open-diamond.png</href>
				</Icon>
				<hotSpot x="0.5" y="0.0" xunits="fraction" yunits="fraction" />
				<color>ff0000ff</color>
			</IconStyle>
			<LineStyle>
				<color>00000000</color>
				<width>0.0</width>
			</LineStyle>
		</Style>
		<OvCoordType>CGCS2000</OvCoordType>
		<Point>
			<coordinates>115.74596200,28.55937300,0</coordinates>
		</Point>
		<LookAt>
			<longitude>115.74596405</longitude>
			<latitude>28.55937386</latitude>
			<altitude>0</altitude>
			<heading>3.00000000</heading>
			<tilt>0.00000000</tilt>
			<range>20000</range>
			<gx:altitudeMode>relativeToSeaFloor</gx:altitudeMode>
		</LookAt>
	</Placemark>
	<Placemark>
		<name>4芯220米</name>
		<Style>
			<LineStyle><color>ffff0000</color><width>3</width></LineStyle>
		</Style>
		<OvStyle>
			<TrackStyle><type>4</type><width>3</width><LineType>0</LineType></TrackStyle>
		</OvStyle>
		<OvCoordType>CGCS2000</OvCoordType>
			<LineString>
				<coordinates>115.73337078,28.55053424,0 115.73374629,28.55102430,0 115.73399305,28.55101487,0 115.73430419,28.55127875,0 115.73493719,28.55104314,0 115.73510600,28.55110500,0 </coordinates>
			</LineString>
	</Placemark>
	<Placemark>
		<name>4芯500米</name>
		<Style>
			<LineStyle><color>ffff0000</color><width>3</width></LineStyle>
		</Style>
		<OvStyle>
			<TrackStyle><type>4</type><width>3</width><LineType>0</LineType></TrackStyle>
		</OvStyle>
		<OvCoordType>CGCS2000</OvCoordType>
			<LineString>
				<coordinates>115.73536634,28.55125048,0 115.73693275,28.55270178,0 115.73763013,28.55324837,0 115.73739409,28.55355935,0 115.73664308,28.55387977,0 115.73647141,28.55416248,0 115.73657870,28.55427557,0 </coordinates>
			</LineString>
	</Placemark>
	<Placemark>
		<name>4芯30米</name>
		<Style>
			<LineStyle><color>ffff0000</color><width>3</width></LineStyle>
		</Style>
		<OvStyle>
			<TrackStyle><type>4</type><width>3</width><LineType>0</LineType></TrackStyle>
		</OvStyle>
		<OvCoordType>CGCS2000</OvCoordType>
			<LineString>
				<coordinates>115.73722243,28.54994052,0 115.73736394,28.55015353,0 </coordinates>
			</LineString>
	</Placemark>
	<Placemark>
		<name>4芯60米</name>
		<Style>
			<LineStyle><color>ffff0000</color><width>3</width></LineStyle>
		</Style>
		<OvStyle>
			<TrackStyle><type>4</type><width>3</width><LineType>0</LineType></TrackStyle>
		</OvStyle>
		<OvCoordType>CGCS2000</OvCoordType>
			<LineString>
				<coordinates>115.74132807,28.55072745,0 115.74187700,28.55067800,0 </coordinates>
			</LineString>
	</Placemark>
	<Placemark>
		<name>4芯500米</name>
		<Style>
			<LineStyle><color>ffff0000</color><width>3</width></LineStyle>
		</Style>
		<OvStyle>
			<TrackStyle><type>4</type><width>3</width><LineType>0</LineType></TrackStyle>
		</OvStyle>
		<OvCoordType>CGCS2000</OvCoordType>
			<LineString>
				<coordinates>115.74325204,28.55434154,0 115.74458241,28.55387034,0 115.74519396,28.55363475,0 115.74604154,28.55218346,0 115.74612737,28.55174053,0 115.74573040,28.55169341,0 </coordinates>
			</LineString>
	</Placemark>
	<Placemark>
		<name>4芯80米</name>
		<Style>
			<LineStyle><color>ffff0000</color><width>3</width></LineStyle>
		</Style>
		<OvStyle>
			<TrackStyle><type>4</type><width>3</width><LineType>0</LineType></TrackStyle>
		</OvStyle>
		<OvCoordType>CGCS2000</OvCoordType>
			<LineString>
				<coordinates>115.74341094,28.55520781,0 115.74273705,28.55556663,0 </coordinates>
			</LineString>
	</Placemark>
	<Placemark>
		<name>4芯20米</name>
		<Style>
			<LineStyle><color>ffff0000</color><width>3</width></LineStyle>
		</Style>
		<OvStyle>
			<TrackStyle><type>4</type><width>3</width><LineType>0</LineType></TrackStyle>
		</OvStyle>
		<OvCoordType>CGCS2000</OvCoordType>
			<LineString>
				<coordinates>115.74359400,28.55504300,0 115.74371584,28.55499949,0 </coordinates>
			</LineString>
	</Placemark>
	<Placemark>
		<name>4芯100米</name>
		<Style>
			<LineStyle><color>ffff0000</color><width>3</width></LineStyle>
		</Style>
		<OvStyle>
			<TrackStyle><type>4</type><width>3</width><LineType>0</LineType></TrackStyle>
		</OvStyle>
		<OvCoordType>CGCS2000</OvCoordType>
			<LineString>
				<coordinates>115.74596200,28.55937300,0 115.74678701,28.55894297,0 </coordinates>
			</LineString>
	</Placemark>
	<Placemark>
		<name>4芯20米</name>
		<Style>
			<LineStyle><color>ffff0000</color><width>3</width></LineStyle>
		</Style>
		<OvStyle>
			<TrackStyle><type>4</type><width>3</width><LineType>0</LineType></TrackStyle>
		</OvStyle>
		<OvCoordType>CGCS2000</OvCoordType>
			<LineString>
				<coordinates>115.73874614,28.55006598,0 115.73871374,28.55019026,0 </coordinates>
			</LineString>
	</Placemark>
</Document>
</kml>
